GLOBALSTAR M063         
1 26081U 00008A   24279.65954740 -.00000020  00000+0  91872-3 0  9991
2 26081  51.9957  61.8982 0004937 174.6482 198.3133 11.86160456127370
GLOBALSTAR M062         
1 26082U 00008B   24279.88845234  .00000101  00000+0  14240-2 0  9996
2 26082  51.9827 123.5889 0006227 294.0321 197.5792 12.43449953464981
GLOBALSTAR M060         
1 26083U 00008C   24279.69201703  .00000040  00000+0  13072-2 0  9997
2 26083  52.0033  48.1665 0002742 338.1993 155.8066 12.17645281121366
GLOBALSTAR M064         
1 26084U 00008D   24279.82561039 -.00000019  00000+0  91505-3 0  9999
2 26084  52.0015 163.2922 0001069 321.0281  39.0475 11.88523572136856
GLOBALSTAR M065         
1 31571U 07020A   24279.90372140  .00000022  00000+0  70690-3 0  9994
2 31571  51.9884 280.2122 0010221 102.0160 287.1581 12.61980781801304
GLOBALSTAR M069         
1 31573U 07020C   24279.67025737 -.00000027  00000+0  44467-3 0  9996
2 31573  51.9936 237.1983 0000702   3.4389 169.1311 12.58766779802395
GLOBALSTAR M072         
1 31574U 07020D   24279.89979164 -.00000020  00000+0  46920-3 0  9992
2 31574  52.0100 331.9535 0000386 153.4095  17.4728 12.62265500800706
GLOBALSTAR M071         
1 31576U 07020F   24279.61335133 -.00000048  00000+0  31129-3 0  9991
2 31576  52.0051 242.0351 0000861 326.6385 204.7668 12.62258554463581
